start=new Date('2021-11-11T00:00:00.000Z').valueOf();
sats=[{"ARG_OF_PERICENTER":"77.6980","ECCENTRICITY":"0.00012550","MEAN_MOTION_DDOT":"0.0000000000000","PERIAPSIS":"546.380","CENTER_NAME":"EARTH","MEAN_MOTION_DOT":"-0.00000989","GP_ID":"189424544","TIME_SYSTEM":"UTC","CLASSIFICATION_TYPE":"U","REF_FRAME":"TEME","FILE":"3211038","BSTAR":"-0.00004751700000","SEMIMAJOR_AXIS":"6925.384","RCS_SIZE":"LARGE","INCLINATION":"53.0564","NORAD_CAT_ID":"48119","MEAN_ANOMALY":"282.4150","PERIOD":"95.593","ELEMENT_SET_NO":"999","OBJECT_NAME":"STARLINK-2459","MEAN_ELEMENT_THEORY":"SGP4","LAUNCH_DATE":"2021-04-07","EPOCH":"2021-11-10T17:55:30.584928","TLE_LINE2":"2 48119  53.0564  44.2439 0001255  77.6980 282.4150 15.06388392 34558","OBJECT_ID":"2021-027AD","MEAN_MOTION":"15.06388392","COUNTRY_CODE":"US","RA_OF_ASC_NODE":"44.2439","EPHEMERIS_TYPE":"0","DECAY_DATE":null,"APOAPSIS":"548.118","SITE":"AFETR","REV_AT_EPOCH":"3455","TLE_LINE1":"1 48119U 21027AD  21314.74688177 -.00000989  00000-0 -47517-4 0  9990","OBJECT_TYPE":"PAYLOAD"},{"GP_ID":"189424771","CENTER_NAME":"EARTH","PERIAPSIS":"546.355","MEAN_MOTION_DOT":"-0.00000093","MEAN_MOTION_DDOT":"0.0000000000000","TIME_SYSTEM":"UTC","ARG_OF_PERICENTER":"78.2721","ECCENTRICITY":"0.00012110","NORAD_CAT_ID":"48120","INCLINATION":"53.0571","RCS_SIZE":"LARGE","SEMIMAJOR_AXIS":"6925.329","OBJECT_NAME":"STARLINK-2460","ELEMENT_SET_NO":"999","PERIOD":"95.592","MEAN_ANOMALY":"281.8404","FILE":"3211038","REF_FRAME":"TEME","CLASSIFICATION_TYPE":"U","BSTAR":"0.00001261300000","EPOCH":"2021-11-10T18:03:28.633536","LAUNCH_DATE":"2021-04-07","MEAN_ELEMENT_THEORY":"SGP4","COUNTRY_CODE":"US","OBJECT_ID":"2021-027AE","TLE_LINE2":"2 48120  53.0571  64.2268 0001211  78.2721 281.8404 15.06406445 34298","MEAN_MOTION":"15.06406445","OBJECT_TYPE":"PAYLOAD","TLE_LINE1":"1 48120U 21027AE  21314.75241474 -.00000093  00000-0  12613-4 0  9992","REV_AT_EPOCH":"3429","SITE":"AFETR","RA_OF_ASC_NODE":"64.2268","APOAPSIS":"548.032","DECAY_DATE":null,"EPHEMERIS_TYPE":"0"},{"EPHEMERIS_TYPE":"0","DECAY_DATE":null,"APOAPSIS":"548.065","RA_OF_ASC_NODE":"54.0580","SITE":"AFETR","TLE_LINE1":"1 48121U 21027AF  21314.79018041  .00000387  00000-0  44895-4 0  9991","REV_AT_EPOCH":"3442","OBJECT_TYPE":"PAYLOAD","TLE_LINE2":"2 48121  53.0573  54.0580 0001229  75.2289 284.8836 15.06399747 34423","OBJECT_ID":"2021-027AF","MEAN_MOTION":"15.06399747","COUNTRY_CODE":"US","MEAN_ELEMENT_THEORY":"SGP4","LAUNCH_DATE":"2021-04-07","EPOCH":"2021-11-10T18:57:51.587424","BSTAR":"0.00004489500000","CLASSIFICATION_TYPE":"U","REF_FRAME":"TEME","FILE":"3211038","MEAN_ANOMALY":"284.8836","PERIOD":"95.592","ELEMENT_SET_NO":"999","OBJECT_NAME":"STARLINK-2462","SEMIMAJOR_AXIS":"6925.349","RCS_SIZE":"LARGE","NORAD_CAT_ID":"48121","INCLINATION":"53.0573","ECCENTRICITY":"0.00012290","ARG_OF_PERICENTER":"75.2289","TIME_SYSTEM":"UTC","MEAN_MOTION_DDOT":"0.0000000000000","MEAN_MOTION_DOT":"0.00000387","PERIAPSIS":"546.363","CENTER_NAME":"EARTH","GP_ID":"189424969"},{"TIME_SYSTEM":"UTC","MEAN_MOTION_DDOT":"0.0000000000000","CENTER_NAME":"EARTH","PERIAPSIS":"546.379","MEAN_MOTION_DOT":"0.00002240","GP_ID":"189423793","ECCENTRICITY":"0.00012180","ARG_OF_PERICENTER":"79.2592","MEAN_ANOMALY":"280.8534","PERIOD":"95.592","ELEMENT_SET_NO":"999","OBJECT_NAME":"STARLINK-2463","SEMIMAJOR_AXIS":"6925.358","RCS_SIZE":"LARGE","NORAD_CAT_ID":"48122","INCLINATION":"53.0568","BSTAR":"0.00016926000000","CLASSIFICATION_TYPE":"U","REF_FRAME":"TEME","FILE":"3211038","TLE_LINE2":"2 48122  53.0568  49.3469 0001218  79.2592 280.8534 15.06397069 34493","MEAN_MOTION":"15.06397069","OBJECT_ID":"2021-027AG","COUNTRY_CODE":"US","MEAN_ELEMENT_THEORY":"SGP4","LAUNCH_DATE":"2021-04-07","EPOCH":"2021-11-10T17:24:18.090432","SITE":"AFETR","REV_AT_EPOCH":"3449","TLE_LINE1":"1 48122U 21027AG  21314.72520938  .00002240  00000-0  16926-3 0  9991","OBJECT_TYPE":"PAYLOAD","EPHEMERIS_TYPE":"0","DECAY_DATE":null,"APOAPSIS":"548.066","RA_OF_ASC_NODE":"49.3469"},{"ARG_OF_PERICENTER":"66.8579","ECCENTRICITY":"0.00014460","MEAN_MOTION_DDOT":"0.0000000000000","GP_ID":"189425044","PERIAPSIS":"546.204","CENTER_NAME":"EARTH","MEAN_MOTION_DOT":"0.00000330","TIME_SYSTEM":"UTC","REF_FRAME":"TEME","CLASSIFICATION_TYPE":"U","FILE":"3211038","BSTAR":"0.00004103600000","SEMIMAJOR_AXIS":"6925.341","NORAD_CAT_ID":"48123","INCLINATION":"53.0565","RCS_SIZE":"LARGE","MEAN_ANOMALY":"293.2563","OBJECT_NAME":"STARLINK-2464","ELEMENT_SET_NO":"999","PERIOD":"95.592","MEAN_ELEMENT_THEORY":"SGP4","EPOCH":"2021-11-10T17:34:16.317120","LAUNCH_DATE":"2021-04-07","MEAN_MOTION":"15.06402524","TLE_LINE2":"2 48123  53.0565  44.3118 0001446  66.8579 293.2563 15.06402524 34568","OBJECT_ID":"2021-027AH","COUNTRY_CODE":"US","RA_OF_ASC_NODE":"44.3118","EPHEMERIS_TYPE":"0","APOAPSIS":"548.207","DECAY_DATE":null,"SITE":"AFETR","OBJECT_TYPE":"PAYLOAD","REV_AT_EPOCH":"3456","TLE_LINE1":"1 48123U 21027AH  21314.73213330  .00000330  00000-0  41036-4 0  9997"},{"REF_FRAME":"TEME","CLASSIFICATION_TYPE":"U","FILE":"3211038","BSTAR":"0.00006532200000","SEMIMAJOR_AXIS":"6925.310","INCLINATION":"53.0571","NORAD_CAT_ID":"48124","RCS_SIZE":"LARGE","MEAN_ANOMALY":"270.7709","OBJECT_NAME":"STARLINK-2465","PERIOD":"95.591","ELEMENT_SET_NO":"999","ARG_OF_PERICENTER":"89.3438","ECCENTRICITY":"0.00013790","MEAN_MOTION_DDOT":"0.0000000000000","GP_ID":"189425271","CENTER_NAME":"EARTH","PERIAPSIS":"546.220","MEAN_MOTION_DOT":"0.00000692","TIME_SYSTEM":"UTC","RA_OF_ASC_NODE":"54.6274","EPHEMERIS_TYPE":"0","APOAPSIS":"548.130","DECAY_DATE":null,"SITE":"AFETR","OBJECT_TYPE":"PAYLOAD","REV_AT_EPOCH":"3440","TLE_LINE1":"1 48124U 21027AJ  21314.66486960  .00000692  00000-0  65322-4 0  9996","MEAN_ELEMENT_THEORY":"SGP4","EPOCH":"2021-11-10T15:57:24.733440","LAUNCH_DATE":"2021-04-07","MEAN_MOTION":"15.06412549","TLE_LINE2":"2 48124  53.0571  54.6274 0001379  89.3438 270.7709 15.06412549 34405","OBJECT_ID":"2021-027AJ","COUNTRY_CODE":"US"},{"ECCENTRICITY":"0.00013850","ARG_OF_PERICENTER":"91.9266","TIME_SYSTEM":"UTC","MEAN_MOTION_DDOT":"0.0000000000000","GP_ID":"189425469","PERIAPSIS":"546.243","CENTER_NAME":"EARTH","MEAN_MOTION_DOT":"0.00000284","BSTAR":"0.00003798900000","REF_FRAME":"TEME","CLASSIFICATION_TYPE":"U","FILE":"3211038","MEAN_ANOMALY":"268.1882","OBJECT_NAME":"STARLINK-2466","ELEMENT_SET_NO":"999","PERIOD":"95.592","SEMIMAJOR_AXIS":"6925.337","NORAD_CAT_ID":"48125","INCLINATION":"53.0559","RCS_SIZE":"LARGE","OBJECT_ID":"2021-027AK","TLE_LINE2":"2 48125  53.0559  64.9590 0001385  91.9266 268.1882 15.06403825 34266","MEAN_MOTION":"15.06403825","COUNTRY_CODE":"US","MEAN_ELEMENT_THEORY":"SGP4","EPOCH":"2021-11-10T14:08:33.772992","LAUNCH_DATE":"2021-04-07","EPHEMERIS_TYPE":"0","APOAPSIS":"548.161","DECAY_DATE":null,"RA_OF_ASC_NODE":"64.9590","SITE":"AFETR","OBJECT_TYPE":"PAYLOAD","TLE_LINE1":"1 48125U 21027AK  21314.58927978  .00000284  00000-0  37989-4 0  9992","REV_AT_EPOCH":"3426"},{"LAUNCH_DATE":"2021-04-07","EPOCH":"2021-11-10T18:22:03.743904","MEAN_ELEMENT_THEORY":"SGP4","COUNTRY_CODE":"US","TLE_LINE2":"2 48126  53.0537  44.1735 0001384  80.4639 279.6506 15.06383294 34571","OBJECT_ID":"2021-027AL","MEAN_MOTION":"15.06383294","RA_OF_ASC_NODE":"44.1735","DECAY_DATE":null,"APOAPSIS":"548.223","EPHEMERIS_TYPE":"0","TLE_LINE1":"1 48126U 21027AL  21314.76532111  .00000469  00000-0  50371-4 0  9999","REV_AT_EPOCH":"3457","OBJECT_TYPE":"PAYLOAD","SITE":"AFETR","ARG_OF_PERICENTER":"80.4639","ECCENTRICITY":"0.00013840","CENTER_NAME":"EARTH","PERIAPSIS":"546.306","MEAN_MOTION_DOT":"0.00000469","GP_ID":"189424293","MEAN_MOTION_DDOT":"0.0000000000000","TIME_SYSTEM":"UTC","FILE":"3211038","CLASSIFICATION_TYPE":"U","REF_FRAME":"TEME","BSTAR":"0.00005037100000","RCS_SIZE":"LARGE","NORAD_CAT_ID":"48126","INCLINATION":"53.0537","SEMIMAJOR_AXIS":"6925.400","ELEMENT_SET_NO":"999","PERIOD":"95.593","OBJECT_NAME":"STARLINK-2467","MEAN_ANOMALY":"279.6506"},{"SITE":"AFETR","OBJECT_TYPE":"PAYLOAD","REV_AT_EPOCH":"3384","TLE_LINE1":"1 48127U 21027AM  21314.49071931  .00005205  00000-0  36794-3 0  9993","EPHEMERIS_TYPE":"0","APOAPSIS":"548.194","DECAY_DATE":null,"RA_OF_ASC_NODE":"65.4025","TLE_LINE2":"2 48127  53.0559  65.4025 0001469  74.2475 285.8676 15.06412007 33848","OBJECT_ID":"2021-027AM","MEAN_MOTION":"15.06412007","COUNTRY_CODE":"US","MEAN_ELEMENT_THEORY":"SGP4","EPOCH":"2021-11-10T11:46:38.148384","LAUNCH_DATE":"2021-04-07","MEAN_ANOMALY":"285.8676","OBJECT_NAME":"STARLINK-2468","PERIOD":"95.591","ELEMENT_SET_NO":"999","SEMIMAJOR_AXIS":"6925.312","NORAD_CAT_ID":"48127","INCLINATION":"53.0559","RCS_SIZE":"LARGE","BSTAR":"0.00036794000000","REF_FRAME":"TEME","CLASSIFICATION_TYPE":"U","FILE":"3210732","TIME_SYSTEM":"UTC","MEAN_MOTION_DDOT":"0.0000000000000","GP_ID":"189372619","PERIAPSIS":"546.159","CENTER_NAME":"EARTH","MEAN_MOTION_DOT":"0.00005205","ECCENTRICITY":"0.00014690","ARG_OF_PERICENTER":"74.2475"},{"BSTAR":"0.00013347000000","FILE":"3211038","CLASSIFICATION_TYPE":"U","REF_FRAME":"TEME","ELEMENT_SET_NO":"999","PERIOD":"95.591","OBJECT_NAME":"STARLINK-2469","MEAN_ANOMALY":"313.2601","RCS_SIZE":"LARGE","NORAD_CAT_ID":"48128","INCLINATION":"53.0536","SEMIMAJOR_AXIS":"6925.310","ECCENTRICITY":"0.00020990","ARG_OF_PERICENTER":"46.8564","TIME_SYSTEM":"UTC","PERIAPSIS":"545.721","MEAN_MOTION_DOT":"0.00001707","CENTER_NAME":"EARTH","GP_ID":"189424772","MEAN_MOTION_DDOT":"0.0000000000000","DECAY_DATE":null,"APOAPSIS":"548.628","EPHEMERIS_TYPE":"0","RA_OF_ASC_NODE":"354.9223","TLE_LINE1":"1 48128U 21027AN  21314.59573982  .00001707  00000-0  13347-3 0  9990","REV_AT_EPOCH":"3523","OBJECT_TYPE":"PAYLOAD","SITE":"AFETR","COUNTRY_CODE":"US","MEAN_MOTION":"15.06412636","TLE_LINE2":"2 48128  53.0536 354.9223 0002099  46.8564 313.2601 15.06412636 35231","OBJECT_ID":"2021-027AN","LAUNCH_DATE":"2021-04-07","EPOCH":"2021-11-10T14:17:51.920448","MEAN_ELEMENT_THEORY":"SGP4"}];
